CRE (WAAS/PRN 138)      
1 28868U 05036A   22282.54058352 -.00000086  00000+0  00000+0 0  9997
2 28868   0.8450  92.5025 0002245  60.1666 312.7751  1.00271833 32952
IOR-W (EGNOS/PRN 126)   
1 28899U 05044A   22282.59235941  .00000000  00000+0  00000+0 0  9991
2 28899   3.5900  38.3431 0002929 170.6399  86.3625  1.00272216 62014
QZS-1 (QZSS/PRN 183)    
1 37158U 10045A   22282.50509113 -.00000129  00000+0  00000+0 0  9995
2 37158  42.4512 131.8124 0746752 270.2206 295.5107  1.00281387 44236
GSAT-8 (GAGAN/PRN 127)  
1 37605U 11022A   22282.51668050  .00000072  00000+0  00000+0 0  9991
2 37605   0.0503  95.8386 0006752 154.7232   8.6096  1.00272560 39716
LUCH 5A (SDCM/PRN 140)  
1 37951U 11074B   22282.65634674 -.00000053  00000+0  00000+0 0  9992
2 37951   5.2992  95.5149 0003807  67.2818 258.8421  1.00274640 39687
SES-5 (EGNOS/PRN 136)   
1 38652U 12036A   22282.31438222  .00000020  00000+0  00000+0 0  9997
2 38652   0.0625 290.8138 0002216 262.2113 303.0520  1.00270996 30985
GSAT-10 (GAGAN/PRN 128) 
1 38779U 12051B   22282.55974385 -.00000178  00000+0  00000+0 0  9990
2 38779   0.0393 118.1427 0003460 118.8351  65.7099  1.00270964 36616
LUCH 5B (SDCM/PRN 125)  
1 38977U 12061A   22282.15813184 -.00000144  00000+0  00000+0 0  9999
2 38977   7.5359  61.7382 0005145 104.4682 252.1643  1.00270443 36667
ASTRA 5B (EGNOS/PRN 123)
1 39617U 14011B   22282.23206403  .00000141  00000+0  00000+0 0  9993
2 39617   0.0842 299.8590 0004560 253.6635 299.3649  1.00272320 31169
LUCH 5V (SDCM/PRN 141)  
1 39727U 14023A   22282.56360162 -.00000280  00000+0  00000+0 0  9992
2 39727   1.7668  76.5486 0002979 138.9507 100.2653  1.00275547 30858
GSAT-15 (GAGAN/PRN 139) 
1 41028U 15065A   22282.56349403 -.00000271  00000+0  00000+0 0  9991
2 41028   0.0673  89.8337 0002196  78.4202 146.2615  1.00271055 25308
E 117 W B (WAAS/PRN 131)
1 41589U 16038B   22282.52878314 -.00000024  00000+0  00000+0 0  9994
2 41589   0.0240  47.0695 0000255  12.7764  31.6657  1.00270721 23165
SES-15 (WAAS/PRN 133)   
1 42709U 17026A   22282.51387663  .00000047  00000+0  00000+0 0  9992
2 42709   0.0124 261.1522 0000434 297.5856 235.2225  1.00268537 20637
QZS-2 (QZSS/PRN 184)    
1 42738U 17028A   22282.29924361 -.00000226  00000+0  00000+0 0  9993
2 42738  41.5901 262.5604 0747826 270.5720  91.7191  1.00256367 19646
QZS-3 (QZSS/PRN 189)    
1 42917U 17048A   22282.50050896 -.00000361  00000+0  00000+0 0  9991
2 42917   0.0522 179.2001 0001615  32.2355 113.8146  1.00266271 18757
QZS-4 (QZSS/PRN 185)    
1 42965U 17062A   22282.55713758 -.00000351  00000+0  00000+0 0  9997
2 42965  40.7413   0.6575 0749275 269.9478  87.0275  1.00275382 18319
GALAXY 30 (WAAS/PRN 135)
1 46114U 20056C   22282.52054696  .00000024  00000+0  00000+0 0  9996
2 46114   0.0224 208.5169 0002954 358.7735 233.2266  1.00271717  7787
